{"type": "FeatureCollection", "features": [ {"type": "Feature", "properties": {"norad_id": 33492, "name": "GOSAT (IBUKI)", "group": "resource", "lat": 71.04596035772254, "lon": -61.50148797698598, "alt_km": 661.3991004591762, "timestamp": "2025-12-11T10:53:15.541551+00:00", "meta": {"OBJECT_NAME": "GOSAT (IBUKI)", "OBJECT_ID": "2009-002A", "EPOCH": "2025-12-11T05:29:31.382016", "MEAN_MOTION": 14.67550218, "ECCENTRICITY": 9.39e-05, "INCLINATION": 98.0768, "RA_OF_ASC_NODE": 93.8531, "ARG_OF_PERICENTER": 90.3208, "MEAN_ANOMALY": 269.8105, "EPHEMERIS_TYPE": 0, "CLASSIFICATION_TYPE": "U", "NORAD_CAT_ID": 33492, "ELEMENT_SET_NO": 999, "REV_AT_EPOCH": 90389, "BSTAR": 0.00025492, "MEAN_MOTION_DOT": 1.398e-05, "MEAN_MOTION_DDOT": 0}, "tle": {"line1": "1 33492U 09002A   25345.22883544  .00001398  00000+0  25492-3 0  9992", "line2": "2 33492  98.0768  93.8531 0000939  90.3208 269.8105 14.67550218903892"}}, "geometry": {"type": "Point", "coordinates": [-61.50148797698598, 71.04596035772254]}}, {"type": "Feature", "properties": {"norad_id": 35681, "name": "DEIMOS-1", "group": "resource", "lat": 28.80790648231302, "lon": -29.60791677605875, "alt_km": 643.3306835383701, "timestamp": "2025-12-11T10:53:15.541563+00:00", "meta": {"OBJECT_NAME": "DEIMOS-1", "OBJECT_ID": "2009-041A", "EPOCH": "2025-12-11T05:19:18.972768", "MEAN_MOTION": 14.7494851, "ECCENTRICITY": 0.0002755, "INCLINATION": 97.7151, "RA_OF_ASC_NODE": 145.8956, "ARG_OF_PERICENTER": 81.8144, "MEAN_ANOMALY": 278.3378, "EPHEMERIS_TYPE": 0, "CLASSIFICATION_TYPE": "U", "NORAD_CAT_ID": 35681, "ELEMENT_SET_NO": 999, "REV_AT_EPOCH": 87917, "BSTAR": 0.00017264, "MEAN_MOTION_DOT": 1.113e-05, "MEAN_MOTION_DDOT": 0}, "tle": {"line1": "1 35681U 09041A   25345.22174737  .00001113  00000+0  17264-3 0  9997", "line2": "2 35681  97.7151 145.8956 0002755  81.8144 278.3378 14.74948510879171"}}, "geometry": {"type": "Point", "coordinates": [-29.60791677605875, 28.80790648231302]}}, {"type": "Feature", "properties": {"norad_id": 35682, "name": "DUBAISAT-1", "group": "resource", "lat": 81.57834121306558, "lon": 44.828449838826366, "alt_km": 643.157563137881, "timestamp": "2025-12-11T10:53:15.541574+00:00", "meta": {"OBJECT_NAME": "DUBAISAT-1", "OBJECT_ID": "2009-041B", "EPOCH": "2025-12-11T02:21:01.918368", "MEAN_MOTION": 14.74596728, "ECCENTRICITY": 0.000965, "INCLINATION": 97.9788, "RA_OF_ASC_NODE": 115.8019, "ARG_OF_PERICENTER": 320.3232, "MEAN_ANOMALY": 39.7269, "EPHEMERIS_TYPE": 0, "CLASSIFICATION_TYPE": "U", "NORAD_CAT_ID": 35682, "ELEMENT_SET_NO": 999, "REV_AT_EPOCH": 87737, "BSTAR": 0.0003371, "MEAN_MOTION_DOT": 2.198e-05, "MEAN_MOTION_DDOT": 0}, "tle": {"line1": "1 35682U 09041B   25345.09793887  .00002198  00000+0  33710-3 0  9994", "line2": "2 35682  97.9788 115.8019 0009650 320.3232  39.7269 14.74596728877375"}}, "geometry": {"type": "Point", "coordinates": [44.828449838826366, 81.57834121306558]}}, {"type": "Feature", "properties": {"norad_id": 35931, "name": "OCEANSAT-2", "group": "resource", "lat": -69.71402291837293, "lon": 143.15702949471, "alt_km": 913.2474578884994, "timestamp": "2025-12-11T10:53:15.541586+00:00", "meta": {"OBJECT_NAME": "OCEANSAT-2", "OBJECT_ID": "2009-051A", "EPOCH": "2025-12-11T04:32:36.612096", "MEAN_MOTION": 13.9962497, "ECCENTRICITY": 0.0016265, "INCLINATION": 98.2224, "RA_OF_ASC_NODE": 345.9472, "ARG_OF_PERICENTER": 49.1237, "MEAN_ANOMALY": 311.1336, "EPHEMERIS_TYPE": 0, "CLASSIFICATION_TYPE": "U", "NORAD_CAT_ID": 35931, "ELEMENT_SET_NO": 999, "REV_AT_EPOCH": 85303, "BSTAR": -7.7711e-05, "MEAN_MOTION_DOT": -1.51e-06, "MEAN_MOTION_DDOT": 0}, "tle": {"line1": "1 35931U 09051A   25345.18931264 -.00000151  00000+0 -77711-4 0  9994", "line2": "2 35931  98.2224 345.9472 0016265  49.1237 311.1336 13.99624970853037"}}, "geometry": {"type": "Point", "coordinates": [143.15702949471, -69.71402291837293]}}, {"type": "Feature", "properties": {"norad_id": 35946, "name": "WORLDVIEW-2 (WV-2)", "group": "resource", "lat": -16.587982090289145, "lon": -125.99052255423865, "alt_km": 773.3711738268548, "timestamp": "2025-12-11T10:53:15.541597+00:00", "meta": {"OBJECT_NAME": "WORLDVIEW-2 (WV-2)", "OBJECT_ID": "2009-055A", "EPOCH": "2025-12-11T04:57:54.584064", "MEAN_MOTION": 14.37651686, "ECCENTRICITY": 0.0005317, "INCLINATION": 98.4762, "RA_OF_ASC_NODE": 56.3122, "ARG_OF_PERICENTER": 70.637, "MEAN_ANOMALY": 289.5392, "EPHEMERIS_TYPE": 0, "CLASSIFICATION_TYPE": "U", "NORAD_CAT_ID": 35946, "ELEMENT_SET_NO": 999, "REV_AT_EPOCH": 84863, "BSTAR": 0.0001077, "MEAN_MOTION_DOT": 2.8e-06, "MEAN_MOTION_DDOT": 0}, "tle": {"line1": "1 35946U 09055A   25345.20688176  .00000280  00000+0  10770-3 0  9990", "line2": "2 35946  98.4762  56.3122 0005317  70.6370 289.5392 14.37651686848637"}}, "geometry": {"type": "Point", "coordinates": [-125.99052255423865, -16.587982090289145]}}, {"type": "Feature", "properties": {"norad_id": 36036, "name": "SMOS", "group": "resource", "lat": -42.17354397741949, "lon": -17.207220759649484, "alt_km": 766.5369223010939, "timestamp": "2025-12-11T10:53:15.541608+00:00", "meta": {"OBJECT_NAME": "SMOS", "OBJECT_ID": "2009-059A", "EPOCH": "2025-12-11T03:11:05.949600", "MEAN_MOTION": 14.39738982, "ECCENTRICITY": 0.0001099, "INCLINATION": 98.438, "RA_OF_ASC_NODE": 170.2049, "ARG_OF_PERICENTER": 84.7194, "MEAN_ANOMALY": 275.4119, "EPHEMERIS_TYPE": 0, "CLASSIFICATION_TYPE": "U", "NORAD_CAT_ID": 36036, "ELEMENT_SET_NO": 999, "REV_AT_EPOCH": 84639, "BSTAR": 0.00020223, "MEAN_MOTION_DOT": 5.9e-06, "MEAN_MOTION_DDOT": 0}, "tle": {"line1": "1 36036U 09059A   25345.13270775  .00000590  00000+0  20223-3 0  9997", "line2": "2 36036  98.4380 170.2049 0001099  84.7194 275.4119 14.39738982846390"}}, "geometry": {"type": "Point", "coordinates": [-17.207220759649484, -42.17354397741949]}}, {"type": "Feature", "properties": {"norad_id": 36110, "name": "YAOGAN-7", "group": "resource", "lat": -51.13901361196666, "lon": 37.12484781243951, "alt_km": 633.7553596132138, "timestamp": "2025-12-11T10:53:15.541620+00:00", "meta": {"OBJECT_NAME": "YAOGAN-7", "OBJECT_ID": "2009-069A", "EPOCH": "2025-12-11T04:57:52.284960", "MEAN_MOTION": 14.77728748, "ECCENTRICITY": 0.0023403, "INCLINATION": 98.0302, "RA_OF_ASC_NODE": 226.9694, "ARG_OF_PERICENTER": 286.5158, "MEAN_ANOMALY": 73.3481, "EPHEMERIS_TYPE": 0, "CLASSIFICATION_TYPE": "U", "NORAD_CAT_ID": 36110, "ELEMENT_SET_NO": 999, "REV_AT_EPOCH": 86186, "BSTAR": 0.00015208, "MEAN_MOTION_DOT": 1.041e-05, "MEAN_MOTION_DDOT": 0}, "tle": {"line1": "1 36110U 09069A   25345.20685515  .00001041  00000+0  15208-3 0  9990", "line2": "2 36110  98.0302 226.9694 0023403 286.5158  73.3481 14.77728748861860"}}, "geometry": {"type": "Point", "coordinates": [37.12484781243951, -51.13901361196666]}}, {"type": "Feature", "properties": {"norad_id": 36605, "name": "TANDEM-X", "group": "resource", "lat": -72.19648796484057, "lon": 14.882449068342408, "alt_km": 516.8604080876958, "timestamp": "2025-12-11T10:53:15.541631+00:00", "meta": {"OBJECT_NAME": "TANDEM-X", "OBJECT_ID": "2010-030A", "EPOCH": "2025-12-10T13:04:49.497312", "MEAN_MOTION": 15.19152954, "ECCENTRICITY": 0.0001855, "INCLINATION": 97.4451, "RA_OF_ASC_NODE": 349.9572, "ARG_OF_PERICENTER": 84.2987, "MEAN_ANOMALY": 275.8459, "EPHEMERIS_TYPE": 0, "CLASSIFICATION_TYPE": "U", "NORAD_CAT_ID": 36605, "ELEMENT_SET_NO": 999, "REV_AT_EPOCH": 85800, "BSTAR": 0.00014449, "MEAN_MOTION_DOT": 2.969e-05, "MEAN_MOTION_DDOT": 0}, "tle": {"line1": "1 36605U 10030A   25344.54501733  .00002969  00000+0  14449-3 0  9990", "line2": "2 36605  97.4451 349.9572 0001855  84.2987 275.8459 15.19152954858001"}}, "geometry": {"type": "Point", "coordinates": [14.882449068342408, -72.19648796484057]}}, {"type": "Feature", "properties": {"norad_id": 36795, "name": "CARTOSAT-2B", "group": "resource", "lat": 24.658146841463, "lon": -141.87361439754795, "alt_km": 630.0083386179494, "timestamp": "2025-12-11T10:53:15.541641+00:00", "meta": {"OBJECT_NAME": "CARTOSAT-2B", "OBJECT_ID": "2010-035A", "EPOCH": "2025-12-11T03:41:40.403040", "MEAN_MOTION": 14.78784278, "ECCENTRICITY": 0.0012907, "INCLINATION": 97.7851, "RA_OF_ASC_NODE": 34.2356, "ARG_OF_PERICENTER": 81.9983, "MEAN_ANOMALY": 278.2692, "EPHEMERIS_TYPE": 0, "CLASSIFICATION_TYPE": "U", "NORAD_CAT_ID": 36795, "ELEMENT_SET_NO": 999, "REV_AT_EPOCH": 83206, "BSTAR": 0.00010375, "MEAN_MOTION_DOT": 7.13e-06, "MEAN_MOTION_DDOT": 0}, "tle": {"line1": "1 36795U 10035A   25345.15393985  .00000713  00000+0  10375-3 0  9990", "line2": "2 36795  97.7851  34.2356 0012907  81.9983 278.2692 14.78784278832060"}}, "geometry": {"type": "Point", "coordinates": [-141.87361439754795, 24.658146841463]}}, {"type": "Feature", "properties": {"norad_id": 36834, "name": "YAOGAN-10", "group": "resource", "lat": -27.645540418129418, "lon": -178.89483689880126, "alt_km": 621.2633329313603, "timestamp": "2025-12-11T10:53:15.541653+00:00", "meta": {"OBJECT_NAME": "YAOGAN-10", "OBJECT_ID": "2010-038A", "EPOCH": "2025-12-11T05:22:53.080608", "MEAN_MOTION": 14.84597672, "ECCENTRICITY": 0.0001492, "INCLINATION": 97.9142, "RA_OF_ASC_NODE": 5.056, "ARG_OF_PERICENTER": 83.7094, "MEAN_ANOMALY": 338.6653, "EPHEMERIS_TYPE": 0, "CLASSIFICATION_TYPE": "U", "NORAD_CAT_ID": 36834, "ELEMENT_SET_NO": 999, "REV_AT_EPOCH": 82931, "BSTAR": 0.0004112, "MEAN_MOTION_DOT": 3.42e-05, "MEAN_MOTION_DDOT": 0}, "tle": {"line1": "1 36834U 10038A   25345.22422547  .00003420  00000+0  41120-3 0  9992", "line2": "2 36834  97.9142   5.0560 0001492  83.7094 338.6653 14.84597672829311"}}, "geometry": {"type": "Point", "coordinates": [-178.89483689880126, -27.645540418129418]}}]}